{"fetched_at":"2026-03-29T16:36:15Z","count":15609,"tles":[{"name":"STARLINK-35888","line1":"1 67190U 25303AD  26087.72399127  .00022790  00000+0  83373-3 0  9995","line2":"2 67190  43.0012 203.4332 0001358 291.1276  68.9431 15.27635473 15647","category":"Starlink"}]}